STARLINK-30557          
1 58087U 23160N   25316.18742673 -.00008525  00000+0 -61600-3 0  9992
2 58087  43.0070 358.6355 0003407 301.3471  58.7038 15.02576535115245
STARLINK-30591          
1 58088U 23160P   25316.38131546 -.00001427  00000+0 -90576-4 0  9995
2 58088  43.0092 357.5070 0001748 267.7886  92.2756 15.02536821115270
STARLINK-30584          
1 58089U 23160Q   25316.84330989  .00002140  00000+0  17337-3 0  9993
2 58089  43.0061 354.9543 0001495 276.1158  83.9514 15.02550736115346
STARLINK-30590          
1 58090U 23160R   25316.11873230 -.00000425  00000+0 -16378-4 0  9997
2 58090  42.9998 358.9732 0000857 287.7912  72.2837 15.02541142115234
STARLINK-30608          
1 58091U 23160S   25316.83998327  .00002072  00000+0  16832-3 0  9994
2 58091  43.0027 354.9249 0001278 263.7140  96.3557 15.02553663115343
STARLINK-30615          
1 58092U 23160T   25316.83554469  .00007592  00000+0  57601-3 0  9991
2 58092  43.0072 354.8933 0001897 271.6051  88.4574 15.02569046115342
STARLINK-30578          
1 58093U 23160U   25316.48108353  .00011181  00000+0  84075-3 0  9994
2 58093  43.0039 357.3828 0001105 265.9577  94.1139 15.02568351115280
STARLINK-30574          
1 58094U 23160V   25316.83332567  .00005042  00000+0  38799-3 0  9991
2 58094  43.0059 354.8791 0001049 270.3165  89.7557 15.02541164115348
STARLINK-30570          
1 58095U 23160W   25316.43113655  .00001015  00000+0  90157-4 0  9996
2 58095  43.0031 357.0187 0000900 267.0618  93.0122 15.02543695115284
STARLINK-30581          
1 58096U 23160X   25316.82344974  .00001258  00000+0  10812-3 0  9998
2 58096  43.0057 355.6468 0001445 273.0980  86.9696 15.02552454115339
STARLINK-30594          
1 58097U 23161A   25316.32926262  .00002118  00000+0  83653-4 0  9991
2 58097  53.1601 350.6295 0001775 105.5198 254.5999 15.30193418116451
STARLINK-30614          
1 58098U 23161B   25316.39139587  .00002585  00000+0  99327-4 0  9998
2 58098  53.1620 350.3081 0001079 108.7046 251.4072 15.30214604116467
STARLINK-30607          
1 58099U 23161C   25316.45996200  .00002184  00000+0  85813-4 0  9999
2 58099  53.1615 340.0215 0001399 129.4064 230.7061 15.30217899116605
STARLINK-30600          
1 58100U 23161D   25316.79277849  .00013323  00000+0  46062-3 0  9999
2 58100  53.1607 348.5340 0002438  83.6465 276.4814 15.30237183116524
STARLINK-30605          
1 58101U 23161E   25316.45250592  .00040909  00000+0  13862-2 0  9990
2 58101  53.1581 349.9775 0001260  90.3111 269.8034 15.30190308116479
STARLINK-30592          
1 58102U 23161F   25316.44932780  .00007013  00000+0  24854-3 0  9999
2 58102  53.1590 349.9594 0001182  99.2258 260.8877 15.30219832116472
STARLINK-30589          
1 58103U 23161G   25316.81595391  .00008035  00000+0  28283-3 0  9999
2 58103  53.1623 348.4930 0001313  99.5841 260.5308 15.30234399116522
STARLINK-30617          
1 58104U 23161H   25316.81911424  .00004071  00000+0  14936-3 0  9995
2 58104  53.1625 348.5131 0001580  99.6423 260.4756 15.30230433116523
STARLINK-30616          
1 58105U 23161J   25316.38344005  .00028050  00000+0  95492-3 0  9992
2 58105  53.1621 337.3063 0001451  57.2458 302.8683 15.30222989116634
STARLINK-30612          
1 58106U 23161K   25316.78269017  .00003702  00000+0  13696-3 0  9999
2 58106  53.1608 335.5456 0001242 101.5077 258.6063 15.30224178116704
STARLINK-30421          
1 58107U 23161L   25317.04923365  .00013408  00000+0  46355-3 0  9995
2 58107  53.1624 334.3314 0001217  87.8239 272.2901 15.30230949116741
STARLINK-30611          
1 58108U 23161M   25317.07032880  .00008576  00000+0  30104-3 0  9997
2 58108  53.1608 334.4427 0001469  97.6524 262.4644 15.30231577116748
STARLINK-30606          
1 58109U 23161N   25317.11618833  .00003998  00000+0  14699-3 0  9995
2 58109  53.1597 347.0068 0001313  99.9553 260.1596 15.30211779116576
STARLINK-30596          
1 58110U 23161P   25316.43982604 -.00000338  00000+0  72148-6 0  9993
2 58110  53.1616 349.8984 0001238  85.1889 274.9253 15.30216699116470
STARLINK-30595          
1 58111U 23161Q   25317.06353250  .00011885  00000+0  41224-3 0  9999
2 58111  53.1615 347.3924 0002131  94.2252 265.8992 15.30240550116567
STARLINK-30593          
1 58112U 23161R   25317.12569859 -.00001706  00000+0 -45509-4 0  9995
2 58112  53.1606 347.0636 0001331 317.1827  42.9070 15.30181844116573
STARLINK-30353          
1 58113U 23161S   25317.06986426 -.00000615  00000+0 -86126-5 0  9991
2 58113  53.1613 347.4277 0002008 115.1700 244.9509 15.30205042116562
STARLINK-30572          
1 58114U 23161T   25317.12258131 -.00002867  00000+0 -84821-4 0  9994
2 58114  53.1630 347.0438 0001493 101.3849 258.7320 15.30150870116578
STARLINK-30580          
1 58115U 23161U   25317.09615154 -.00004220  00000+0 -13049-3 0  9991
2 58115  53.1603 346.8654 0000844  95.9949 264.1148 15.30190338116576
STARLINK-30493          
1 58116U 23161V   25316.80544172  .00020237  00000+0  69272-3 0  9994
2 58116  53.1609 348.6230 0001234  97.8597 262.2544 15.30238050116525
STARLINK-30601          
1 58117U 23161W   25317.07303479  .00004133  00000+0  15156-3 0  9997
2 58117  53.1614 347.4509 0003229  87.6685 272.4686 15.30212045116569
STARLINK-30795          
1 58118U 23162A   25316.31850633  .00000764  00000+0  71618-4 0  9996
2 58118  43.0030  50.9152 0001072 267.0619  93.0101 15.02536495114648
STARLINK-30765          
1 58119U 23162B   25316.66867092 -.00001869  00000+0 -12337-3 0  9993
2 58119  43.0081  49.2272 0000908 267.9689  92.1049 15.02520830114694
STARLINK-30768          
1 58120U 23162C   25316.64755007  .00001231  00000+0  10617-3 0  9995
2 58120  43.0038  49.0841 0001333 277.8973  82.1718 15.02551922114695
STARLINK-30799          
1 58121U 23162D   25316.53457312  .00005483  00000+0  42043-3 0  9993
2 58121  43.0050  49.9373 0001161 272.5089  87.5621 15.02557509114675
STARLINK-30759          
1 58122U 23162E   25316.64533961  .00002945  00000+0  23294-3 0  9998
2 58122  43.0047  49.0664 0001457 264.1663  95.9014 15.02546879114700
STARLINK-30781          
1 58123U 23162F   25316.57775383  .00000638  00000+0  62275-4 0  9997
2 58123  43.0071  49.4164 0001238 261.7687  98.3015 15.02541992114689
STARLINK-30754          
1 58124U 23162G   25316.66668981  .00050832  00000+0  37560-2 0  9991
2 58124  43.0041  49.1760 0001560 281.4581  91.9772 15.02483337  5806
STARLINK-30766          
1 58125U 23162H   25316.64090077  .00000125  00000+0  24346-4 0  9995
2 58125  43.0026  49.0289 0001064 268.1434  91.9287 15.02541089114691
STARLINK-30767          
1 58126U 23162J   25316.63757068 -.00000103  00000+0  74128-5 0  9996
2 58126  43.0044  49.0053 0001188 271.5572  88.5134 15.02544642114690
STARLINK-30790          
1 58127U 23162K   25316.63345654  .00023456  00000+0  17324-2 0  9998
2 58127  43.0039  48.9719 0001205 275.4827  84.5878 15.02823739114696
STARLINK-30787          
1 58128U 23162L   25316.63091061  .00002256  00000+0  18194-3 0  9991
2 58128  43.0028  48.9557 0001090 268.0784  91.9933 15.02557084114698
STARLINK-30756          
1 58129U 23162M   25316.52792799  .00003953  00000+0  30764-3 0  9998
2 58129  43.0098  49.8853 0001491 268.4788  91.5884 15.02527457114678
STARLINK-30783          
1 58130U 23162N   25316.62757954  .00000237  00000+0  32595-4 0  9992
2 58130  43.0051  48.9278 0001229 282.8720  77.1985 15.02549775114696
STARLINK-30757          
1 58131U 23162P   25316.62425089  .00001759  00000+0  14526-3 0  9997
2 58131  43.0027  48.9018 0001478 297.9712  62.0980 15.02537880114698
STARLINK-30770          
1 58132U 23162Q   25316.52458635  .00002078  00000+0  16879-3 0  9998
2 58132  42.9998  49.8476 0001054 260.7676  99.3047 15.02549992114671
STARLINK-30758          
1 58133U 23162R   25316.68962001 -.00000093  00000+0  81619-5 0  9995
2 58133  43.0044  48.5328 0001135 270.5916  89.4796 15.02541350114709
STARLINK-30761          
1 58134U 23162S   25316.25535391  .00000186  00000+0  28878-4 0  9996
2 58134  43.0040  51.2808 0001290 274.4949  85.5746 15.02537428114636
STARLINK-30772          
1 58135U 23162T   25316.68751475  .00023446  00000+0  17440-2 0  9992
2 58135  43.0038  49.3618 0001276 264.1086  95.9610 15.02555035114698
STARLINK-30776          
1 58136U 23162U   25316.34624724  .00001997  00000+0  16283-3 0  9994
2 58136  43.0025  51.0873 0001441 268.9410  91.1267 15.02541003114646
STARLINK-30782          
1 58137U 23162V   25316.54790120  .00000532  00000+0  54467-4 0  9992
2 58137  43.0068  50.0352 0001570 271.3862  88.6800 15.02545318114677
STARLINK-30769          
1 58138U 23162W   25316.54124269  .00000443  00000+0  47898-4 0  9999
2 58138  43.0066  49.9883 0001843 279.1864  80.8770 15.02543603114678
STARLINK-30775          
1 58139U 23162X   25316.67751603  .00001854  00000+0  15221-3 0  9993
2 58139  43.0037  49.2859 0001143 262.5817  97.4895 15.02551941114698
STARLINK-30780          
1 58140U 23162Y   25316.53790040 -.00000018  00000+0  13742-4 0  9997
2 58140  43.0038  49.9558 0001596 280.5144  79.5519 15.02558683114671
YAOGAN-39 04A           
1 58141U 23163A   25317.17696670  .00035221  00000+0  14476-2 0  9990
2 58141  35.0004 263.1932 0007891 231.5255 128.4753 15.23182042114629
YAOGAN-39 04B           
1 58143U 23163C   25316.03153788  .00020367  00000+0  95757-3 0  9991
2 58143  34.9953 282.2867 0006001  24.5040 335.5957 15.18707977114312
YAOGAN-39 04C           
1 58145U 23163E   25317.23022095  .00017601  00000+0  87520-3 0  9998
2 58145  34.9920 274.9230 0005195 198.9869 161.0650 15.16788892114504
COSMOS 2570             
1 58148U 23165A   25316.92653086  .00000016  00000+0  65969-4 0  9994
2 58148  67.1454  95.0139 0005338 263.4100  96.6377 13.96679308104439
STARLINK-30802          
1 58150U 23166A   25316.50701362  .00006759  00000+0  23979-3 0  9997
2 58150  53.1624  44.2176 0001185  81.9505 278.1631 15.30243878115230
